FLOCK 4H-15             
1 66718U 25276BE  26185.56375028  .00011047  00000+0  51892-3 0  9998
2 66718  97.4211 258.7669 0003110 331.8259  28.2807 15.19779139 33053
FLOCK 4H-16             
1 66719U 25276BF  26186.13078755  .00011369  00000+0  52971-3 0  9996
2 66719  97.4225 259.4290 0002876 313.0460  47.0534 15.20055887 33146
FLOCK 4H-18             
1 66721U 25276BH  26186.00490683  .00011564  00000+0  53967-3 0  9996
2 66721  97.4170 259.1273 0002867 346.4206  13.6951 15.19995866 33122
FLOCK 4H-19             
1 66722U 25276BJ  26186.20953912  .00010234  00000+0  46153-3 0  9990
2 66722  97.4169 259.7730 0001517 167.8581 192.2691 15.21208626 32473
FLOCK 4H-20             
1 66723U 25276BK  26186.14693000  .00011650  00000+0  52264-3 0  9996
2 66723  97.4206 259.8101 0001838 204.2945 155.8204 15.21355291 32426
FLOCK 4H-21             
1 66724U 25276BL  26186.17555921  .00009923  00000+0  45109-3 0  9999
2 66724  97.4171 259.6730 0001674 201.0513 159.0654 15.20940708 32425
FLOCK 4H-22             
1 66725U 25276BM  26186.15093187  .00013097  00000+0  60317-3 0  9994
2 66725  97.4162 259.3685 0001821   0.9276 359.1963 15.20423025 33153
FLOCK 4H-23             
1 66726U 25276BN  26186.13576650  .00011175  00000+0  52188-3 0  9996
2 66726  97.4233 259.4357 0002875 300.3578  59.7373 15.19978832 33148
FLOCK 4H-24             
1 66727U 25276BP  26186.18709699  .00011576  00000+0  53878-3 0  9995
2 66727  97.4226 259.5141 0002639 325.3420  34.7643 15.20086597 33158
FLOCK 4H-25             
1 66728U 25276BQ  26186.19347247  .00009897  00000+0  45098-3 0  9992
2 66728  97.4185 259.6819 0001399 129.0485 231.0875 15.20860103 32452
FLOCK 4H-26             
1 66729U 25276BR  26186.15287822  .00012011  00000+0  56333-3 0  9997
2 66729  97.4180 259.2727 0003459 317.9104  42.1865 15.19812253 33145
FLOCK 4H-27             
1 66730U 25276BS  26186.15712223  .00011502  00000+0  52631-3 0  9998
2 66730  97.4158 259.5049 0001110 118.3506 241.7841 15.20676531 33165
FLOCK 4H-29             
1 66732U 25276BU  26186.13332790  .00011795  00000+0  55111-3 0  9995
2 66732  97.4161 259.2364 0002284 346.4380  13.6794 15.19949476 33145
FLOCK 4H-30             
1 66733U 25276BV  26185.99438867  .00011436  00000+0  53256-3 0  9991
2 66733  97.4223 259.2971 0002899 322.6456  37.4577 15.20069998 33126
FLOCK 4H-31             
1 66734U 25276BW  26186.14555014  .00012283  00000+0  57534-3 0  9998
2 66734  97.4158 259.2170 0002599 335.9570  24.1543 15.19853143 33145
FLOCK 4H-32             
1 66735U 25276BX  26186.13424426  .00010934  00000+0  51080-3 0  9991
2 66735  97.4215 259.3932 0003215 316.2217  43.8762 15.19972189 33146
