{"fetched_at":"2026-07-05T17:36:11.010Z","source":"https://celestrak.org/NORAD/elements/gp.php?GROUP=planet&FORMAT=JSON","constellation":"superdove","records":[{"OBJECT_NAME":"FLOCK 4H-15","OBJECT_ID":"2025-276BE","EPOCH":"2026-07-04T13:31:48.024192","CLASSIFICATION_TYPE":"U","MEAN_MOTION":15.19779139,"ECCENTRICITY":0.00031106,"INCLINATION":97.4211,"RA_OF_ASC_NODE":258.7669,"ARG_OF_PERICENTER":331.8259,"MEAN_ANOMALY":28.2807,"EPHEMERIS_TYPE":0,"NORAD_CAT_ID":66718,"ELEMENT_SET_NO":999,"REV_AT_EPOCH":3305,"BSTAR":0.00051892062,"MEAN_MOTION_DOT":0.00011047,"MEAN_MOTION_DDOT":0},{"OBJECT_NAME":"FLOCK 4H-16","OBJECT_ID":"2025-276BF","EPOCH":"2026-07-05T03:08:20.044320","CLASSIFICATION_TYPE":"U","MEAN_MOTION":15.20055887,"ECCENTRICITY":0.00028765,"INCLINATION":97.4225,"RA_OF_ASC_NODE":259.429,"ARG_OF_PERICENTER":313.046,"MEAN_ANOMALY":47.0534,"EPHEMERIS_TYPE":0,"NORAD_CAT_ID":66719,"ELEMENT_SET_NO":999,"REV_AT_EPOCH":3314,"BSTAR":0.00052971379,"MEAN_MOTION_DOT":0.00011369,"MEAN_MOTION_DDOT":0},{"OBJECT_NAME":"FLOCK 4H-18","OBJECT_ID":"2025-276BH","EPOCH":"2026-07-05T00:07:03.950112","CLASSIFICATION_TYPE":"U","MEAN_MOTION":15.19995866,"ECCENTRICITY":0.00028675,"INCLINATION":97.417,"RA_OF_ASC_NODE":259.1273,"ARG_OF_PERICENTER":346.4206,"MEAN_ANOMALY":13.6951,"EPHEMERIS_TYPE":0,"NORAD_CAT_ID":66721,"ELEMENT_SET_NO":999,"REV_AT_EPOCH":3312,"BSTAR":0.00053966507,"MEAN_MOTION_DOT":0.00011564,"MEAN_MOTION_DDOT":0},{"OBJECT_NAME":"FLOCK 4H-19","OBJECT_ID":"2025-276BJ","EPOCH":"2026-07-05T05:01:44.179968","CLASSIFICATION_TYPE":"U","MEAN_MOTION":15.21208626,"ECCENTRICITY":0.00015174,"INCLINATION":97.4169,"RA_OF_ASC_NODE":259.773,"ARG_OF_PERICENTER":167.8581,"MEAN_ANOMALY":192.2691,"EPHEMERIS_TYPE":0,"NORAD_CAT_ID":66722,"ELEMENT_SET_NO":999,"REV_AT_EPOCH":3247,"BSTAR":0.00046153327,"MEAN_MOTION_DOT":0.00010234,"MEAN_MOTION_DDOT":0},{"OBJECT_NAME":"FLOCK 4H-20","OBJECT_ID":"2025-276BK","EPOCH":"2026-07-05T03:31:34.752000","CLASSIFICATION_TYPE":"U","MEAN_MOTION":15.21355291,"ECCENTRICITY":0.00018383,"INCLINATION":97.4206,"RA_OF_ASC_NODE":259.8101,"ARG_OF_PERICENTER":204.2945,"MEAN_ANOMALY":155.8204,"EPHEMERIS_TYPE":0,"NORAD_CAT_ID":66723,"ELEMENT_SET_NO":999,"REV_AT_EPOCH":3242,"BSTAR":0.00052264016,"MEAN_MOTION_DOT":0.0001165,"MEAN_MOTION_DDOT":0},{"OBJECT_NAME":"FLOCK 4H-21","OBJECT_ID":"2025-276BL","EPOCH":"2026-07-05T04:12:48.315744","CLASSIFICATION_TYPE":"U","MEAN_MOTION":15.20940708,"ECCENTRICITY":0.00016749,"INCLINATION":97.4171,"RA_OF_ASC_NODE":259.673,"ARG_OF_PERICENTER":201.0513,"MEAN_ANOMALY":159.0654,"EPHEMERIS_TYPE":0,"NORAD_CAT_ID":66724,"ELEMENT_SET_NO":999,"REV_AT_EPOCH":3242,"BSTAR":0.00045109237,"MEAN_MOTION_DOT":0.00009923,"MEAN_MOTION_DDOT":0},{"OBJECT_NAME":"FLOCK 4H-22","OBJECT_ID":"2025-276BM","EPOCH":"2026-07-05T03:37:20.513568","CLASSIFICATION_TYPE":"U","MEAN_MOTION":15.20423025,"ECCENTRICITY":0.00018218,"INCLINATION":97.4162,"RA_OF_ASC_NODE":259.3685,"ARG_OF_PERICENTER":0.9276,"MEAN_ANOMALY":359.1963,"EPHEMERIS_TYPE":0,"NORAD_CAT_ID":66725,"ELEMENT_SET_NO":999,"REV_AT_EPOCH":3315,"BSTAR":0.00060317455,"MEAN_MOTION_DOT":0.00013097,"MEAN_MOTION_DDOT":0},{"OBJECT_NAME":"FLOCK 4H-23","OBJECT_ID":"2025-276BN","EPOCH":"2026-07-05T03:15:30.225600","CLASSIFICATION_TYPE":"U","MEAN_MOTION":15.19978832,"ECCENTRICITY":0.00028756,"INCLINATION":97.4233,"RA_OF_ASC_NODE":259.4357,"ARG_OF_PERICENTER":300.3578,"MEAN_ANOMALY":59.7373,"EPHEMERIS_TYPE":0,"NORAD_CAT_ID":66726,"ELEMENT_SET_NO":999,"REV_AT_EPOCH":3314,"BSTAR":0.00052187791,"MEAN_MOTION_DOT":0.00011175,"MEAN_MOTION_DDOT":0},{"OBJECT_NAME":"FLOCK 4H-24","OBJECT_ID":"2025-276BP","EPOCH":"2026-07-05T04:29:25.179936","CLASSIFICATION_TYPE":"U","MEAN_MOTION":15.20086597,"ECCENTRICITY":0.00026396,"INCLINATION":97.4226,"RA_OF_ASC_NODE":259.5141,"ARG_OF_PERICENTER":325.342,"MEAN_ANOMALY":34.7643,"EPHEMERIS_TYPE":0,"NORAD_CAT_ID":66727,"ELEMENT_SET_NO":999,"REV_AT_EPOCH":3315,"BSTAR":0.00053878041,"MEAN_MOTION_DOT":0.00011576,"MEAN_MOTION_DDOT":0},{"OBJECT_NAME":"FLOCK 4H-25","OBJECT_ID":"2025-276BQ","EPOCH":"2026-07-05T04:38:36.021408","CLASSIFICATION_TYPE":"U","MEAN_MOTION":15.20860103,"ECCENTRICITY":0.00013996,"INCLINATION":97.4185,"RA_OF_ASC_NODE":259.6819,"ARG_OF_PERICENTER":129.0485,"MEAN_ANOMALY":231.0875,"EPHEMERIS_TYPE":0,"NORAD_CAT_ID":66728,"ELEMENT_SET_NO":999,"REV_AT_EPOCH":3245,"BSTAR":0.00045097791,"MEAN_MOTION_DOT":0.00009897,"MEAN_MOTION_DDOT":0},{"OBJECT_NAME":"FLOCK 4H-26","OBJECT_ID":"2025-276BR","EPOCH":"2026-07-05T03:40:08.678208","CLASSIFICATION_TYPE":"U","MEAN_MOTION":15.19812253,"ECCENTRICITY":0.00034596,"INCLINATION":97.418,"RA_OF_ASC_NODE":259.2727,"ARG_OF_PERICENTER":317.9104,"MEAN_ANOMALY":42.1865,"EPHEMERIS_TYPE":0,"NORAD_CAT_ID":66729,"ELEMENT_SET_NO":999,"REV_AT_EPOCH":3314,"BSTAR":0.00056333199,"MEAN_MOTION_DOT":0.00012011,"MEAN_MOTION_DDOT":0},{"OBJECT_NAME":"FLOCK 4H-27","OBJECT_ID":"2025-276BS","EPOCH":"2026-07-05T03:46:15.360672","CLASSIFICATION_TYPE":"U","MEAN_MOTION":15.20676531,"ECCENTRICITY":0.00011108,"INCLINATION":97.4158,"RA_OF_ASC_NODE":259.5049,"ARG_OF_PERICENTER":118.3506,"MEAN_ANOMALY":241.7841,"EPHEMERIS_TYPE":0,"NORAD_CAT_ID":66730,"ELEMENT_SET_NO":999,"REV_AT_EPOCH":3316,"BSTAR":0.0005263052,"MEAN_MOTION_DOT":0.00011502,"MEAN_MOTION_DDOT":0},{"OBJECT_NAME":"FLOCK 4H-29","OBJECT_ID":"2025-276BU","EPOCH":"2026-07-05T03:11:59.530560","CLASSIFICATION_TYPE":"U","MEAN_MOTION":15.19949476,"ECCENTRICITY":0.0002284,"INCLINATION":97.4161,"RA_OF_ASC_NODE":259.2364,"ARG_OF_PERICENTER":346.438,"MEAN_ANOMALY":13.6794,"EPHEMERIS_TYPE":0,"NORAD_CAT_ID":66732,"ELEMENT_SET_NO":999,"REV_AT_EPOCH":3314,"BSTAR":0.00055110568,"MEAN_MOTION_DOT":0.00011795,"MEAN_MOTION_DDOT":0},{"OBJECT_NAME":"FLOCK 4H-30","OBJECT_ID":"2025-276BV","EPOCH":"2026-07-04T23:51:55.181088","CLASSIFICATION_TYPE":"U","MEAN_MOTION":15.20069998,"ECCENTRICITY":0.00028999,"INCLINATION":97.4223,"RA_OF_ASC_NODE":259.2971,"ARG_OF_PERICENTER":322.6456,"MEAN_ANOMALY":37.4577,"EPHEMERIS_TYPE":0,"NORAD_CAT_ID":66733,"ELEMENT_SET_NO":999,"REV_AT_EPOCH":3312,"BSTAR":0.00053255594,"MEAN_MOTION_DOT":0.00011436,"MEAN_MOTION_DDOT":0},{"OBJECT_NAME":"FLOCK 4H-31","OBJECT_ID":"2025-276BW","EPOCH":"2026-07-05T03:29:35.532096","CLASSIFICATION_TYPE":"U","MEAN_MOTION":15.19853143,"ECCENTRICITY":0.00025999,"INCLINATION":97.4158,"RA_OF_ASC_NODE":259.217,"ARG_OF_PERICENTER":335.957,"MEAN_ANOMALY":24.1543,"EPHEMERIS_TYPE":0,"NORAD_CAT_ID":66734,"ELEMENT_SET_NO":999,"REV_AT_EPOCH":3314,"BSTAR":0.00057533561,"MEAN_MOTION_DOT":0.00012283,"MEAN_MOTION_DDOT":0},{"OBJECT_NAME":"FLOCK 4H-32","OBJECT_ID":"2025-276BX","EPOCH":"2026-07-05T03:13:18.704064","CLASSIFICATION_TYPE":"U","MEAN_MOTION":15.19972189,"ECCENTRICITY":0.00032152,"INCLINATION":97.4215,"RA_OF_ASC_NODE":259.3932,"ARG_OF_PERICENTER":316.2217,"MEAN_ANOMALY":43.8762,"EPHEMERIS_TYPE":0,"NORAD_CAT_ID":66735,"ELEMENT_SET_NO":999,"REV_AT_EPOCH":3314,"BSTAR":0.00051080467,"MEAN_MOTION_DOT":0.00010934,"MEAN_MOTION_DDOT":0}]}
